[{"OBJECT_NAME":"STARLINK-1457","OBJECT_ID":"2020-035T","EPOCH":"2026-03-10T00:00:02.999808","MEAN_MOTION":15.78669146,"ECCENTRICITY":0.00092447,"INCLINATION":53.048,"RA_OF_ASC_NODE":20.8784,"ARG_OF_PERICENTER":72.1438,"MEAN_ANOMALY":18.6861,"EPHEMERIS_TYPE":0,"CLASSIFICATION_TYPE":"U","NORAD_CAT_ID":45674,"ELEMENT_SET_NO":999,"REV_AT_EPOCH":598,"BSTAR":0.00068365189,"MEAN_MOTION_DOT":0.00123445,"MEAN_MOTION_DDOT":0},{"OBJECT_NAME":"STARLINK-36979","OBJECT_ID":"2026-039L","EPOCH":"2026-03-09T22:00:01.999584","MEAN_MOTION":15.83857608,"ECCENTRICITY":0.00017465,"INCLINATION":42.9983,"RA_OF_ASC_NODE":53.4523,"ARG_OF_PERICENTER":255.3001,"MEAN_ANOMALY":40.9277,"EPHEMERIS_TYPE":0,"CLASSIFICATION_TYPE":"U","NORAD_CAT_ID":67996,"ELEMENT_SET_NO":999,"REV_AT_EPOCH":291,"BSTAR":-0.0074337427,"MEAN_MOTION_DOT":-0.01507569,"MEAN_MOTION_DDOT":0}]
